{
"type": "FeatureCollection",
"name": "tracks",
"features": [
{ "type": "Feature", "properties": { "name": "New file 2" }, "geometry": { "type": "LineString", "coordinates": [ [ -122.263538, 37.804656 ], [ -122.263488, 37.804637 ], [ -122.262849, 37.804382 ], [ -122.262507, 37.804245 ], [ -122.262405, 37.804205 ], [ -122.262311, 37.804168 ], [ -122.261349, 37.803798 ], [ -122.261322, 37.803787 ], [ -122.261217, 37.803737 ], [ -122.261205, 37.803732 ], [ -122.261094, 37.803693 ], [ -122.261067, 37.803662 ], [ -122.261045, 37.803636 ], [ -122.261059, 37.803565 ], [ -122.26113, 37.803451 ], [ -122.261474, 37.802908 ], [ -122.261484, 37.802882 ], [ -122.261512, 37.802808 ], [ -122.261543, 37.802753 ], [ -122.261541, 37.802748 ], [ -122.261528, 37.802727 ], [ -122.261545, 37.802642 ], [ -122.261565, 37.802529 ], [ -122.261571, 37.802391 ], [ -122.261571, 37.802379 ], [ -122.261706, 37.802408 ], [ -122.26176, 37.80228 ], [ -122.261792, 37.802144 ], [ -122.26175, 37.801931 ], [ -122.261693, 37.801825 ], [ -122.261594, 37.801683 ], [ -122.261588, 37.801676 ], [ -122.261555, 37.801479 ], [ -122.261542, 37.801374 ], [ -122.261561, 37.801157 ], [ -122.261688, 37.800958 ], [ -122.261738, 37.80086 ], [ -122.261753, 37.800788 ], [ -122.261745, 37.800694 ], [ -122.261687, 37.800447 ], [ -122.261687, 37.800212 ], [ -122.261709, 37.800054 ], [ -122.261715, 37.799859 ], [ -122.261669, 37.799717 ], [ -122.261616, 37.799609 ], [ -122.261582, 37.799556 ], [ -122.261513, 37.799459 ], [ -122.261422, 37.79937 ], [ -122.261314, 37.799288 ], [ -122.26121, 37.79922 ], [ -122.261085, 37.799166 ], [ -122.260309, 37.798871 ], [ -122.260138, 37.798808 ], [ -122.260089, 37.798764 ], [ -122.260017, 37.798737 ], [ -122.259973, 37.798698 ], [ -122.259939, 37.798656 ], [ -122.259901, 37.798625 ], [ -122.259844, 37.798603 ], [ -122.259796, 37.798598 ], [ -122.259284, 37.79857 ], [ -122.259228, 37.79858 ], [ -122.259183, 37.798597 ], [ -122.259097, 37.798651 ], [ -122.258947, 37.798753 ], [ -122.258894, 37.798773 ], [ -122.258884, 37.798777 ], [ -122.258757, 37.798794 ], [ -122.258721, 37.798843 ], [ -122.258608, 37.798984 ], [ -122.258515, 37.79908 ], [ -122.258376, 37.799213 ], [ -122.258225, 37.799333 ], [ -122.258146, 37.799389 ], [ -122.258124, 37.799403 ] ] } }
]
}
