{
"type": "FeatureCollection",
"name": "The Care map - Sheet1 (5)",
"features": [
{ "type": "Feature", "properties": { "Name": " Lake Merritt United Methodist Church", "Short_Description": "This is our Starting point and Ending point. ", "Description_1": "This site also marks where I first met Tom, who has been involved in this program for over ten years and has coordinated the route since the onset of COVID-19 (2020). Volunteers assemble here to load the carts with lunches, typically five wagons, including one with hygiene supplies and four with sandwiches.", "Description_2": "The lunch bags generally contain one sandwich, one egg, a small bottle of water, one to two apples, and assorted snacks. We typically distribute two bags per person.\n\n*Additional information is available on the organization’s website linked below the map title.", "X": -122.2580276, "Y": 37.7990695, "Category": "Start and End", "Image_1": "https://raw.githubusercontent.com/emilyma214-alt/thecaremap/main/photos/locations/IMG_4613.jpeg", "image_2": "https://raw.githubusercontent.com/emilyma214-alt/thecaremap/main/photos/locations/IMG_4282.jpeg", "Image_3": "" }, "geometry": { "type": "Point", "coordinates": [ -122.2580276, 37.7990695 ] } },
{ "type": "Feature", "properties": { "Name": "First Stop ", "Short_Description": "First stop, an encampment under the bridge", "Description_1": "According to Tom, approximately 7–8 individuals reside in this encampment, which spans the length of the underpass. Five months ago, the area was more open, but recently it has become more enclosed. Volunteers call out “Lake Lunches” near the entrance; usually one or two residents come out, share how many people are inside, and we leave the appropriate number of lunches at the entrance.", "Description_2": "", "X": -122.259415, "Y": 37.797982, "Category": "Main Stop", "Image_1": "https://raw.githubusercontent.com/emilyma214-alt/thecaremap/main/photos/locations/IMG_4286.jpg", "image_2": "", "Image_3": "" }, "geometry": { "type": "Point", "coordinates": [ -122.259415, 37.797982 ] } },
{ "type": "Feature", "properties": { "Name": "Second Stop ", "Short_Description": "The Ambihtheater ", "Description_1": "This location typically includes a couple and several individuals seated along the stone slabs. People approach us directly, and we distribute lunches accordingly. I have the chance to chat with the couple some times, they mentioned that they are not trying to apply for housing but the different documents and the tedious process is very hard to sit through. ", "Description_2": "Tom also offers donated jackets or winter clothing here. He mentioned they often prioritize distributing clothing to individuals living in tents.", "X": -122.260681, "Y": 37.799084, "Category": "Main Stop", "Image_1": "https://raw.githubusercontent.com/emilyma214-alt/thecaremap/main/photos/locations/IMG_4290.jpeg", "image_2": "https://raw.githubusercontent.com/emilyma214-alt/thecaremap/main/photos/locations/IMG_4407.jpg", "Image_3": "" }, "geometry": { "type": "Point", "coordinates": [ -122.260681, 37.799084 ] } },
{ "type": "Feature", "properties": { "Name": "Small Stop - Bathroom ", "Short_Description": "We will meet 3 - 4 folks here. ", "Description_1": "", "Description_2": "", "X": -122.26153, "Y": 37.799435, "Category": "Small Stop", "Image_1": "https://raw.githubusercontent.com/emilyma214-alt/thecaremap/main/photos/locations/IMG_4960.jpg", "image_2": "", "Image_3": "" }, "geometry": { "type": "Point", "coordinates": [ -122.26153, 37.799435 ] } },
{ "type": "Feature", "properties": { "Name": "Small Stop - The Benches", "Short_Description": "", "Description_1": "This location is a known gathering spot. Visual cues—such as shoes hanging from the power line—often signal informal meeting areas. Volunteers approach this spot with awareness while offering lunches. Individuals here tend to take lunches less frequently than at other stops.", "Description_2": "", "X": -122.261732, "Y": 37.79984, "Category": "Small Stop", "Image_1": "https://raw.githubusercontent.com/emilyma214-alt/thecaremap/main/photos/locations/IMG_4961.jpg", "image_2": "", "Image_3": "" }, "geometry": { "type": "Point", "coordinates": [ -122.261732, 37.79984 ] } },
{ "type": "Feature", "properties": { "Name": "Small Stop - The Grassland ", "Short_Description": "Folks with dogs ", "Description_1": "We typically meet several individuals here accompanied by four dogs. The owners are always eager to introduce them. Although the dogs may bark initially, they quickly become friendly once prompted by their owners.", "Description_2": "One of the dogs, a white dog named Diamond, is well known. The others’ names are not known. Tom mentioned this group is relatively new to the area.", "X": -122.261765, "Y": 37.800929, "Category": "Small Stop", "Image_1": "https://raw.githubusercontent.com/emilyma214-alt/thecaremap/main/photos/locations/IMG_4963.jpg", "image_2": "https://raw.githubusercontent.com/emilyma214-alt/thecaremap/main/photos/locations/IMG_4949.jpg", "Image_3": "" }, "geometry": { "type": "Point", "coordinates": [ -122.261765, 37.800929 ] } },
{ "type": "Feature", "properties": { "Name": "Small Stop - Camron-Stanford House", "Short_Description": "Ms. Chen ", "Description_1": "Ms. Chen is frequently present in this area. She cares for her husband at home and is consistently appreciative of the volunteers. From observation, she has developed close relationships with several long-term volunteers and often greets them with hugs.", "Description_2": "", "X": -122.26268, "Y": 37.80125, "Category": "Small Stop", "Image_1": "https://raw.githubusercontent.com/emilyma214-alt/thecaremap/main/photos/locations/IMG_4966.jpg", "image_2": "", "Image_3": "" }, "geometry": { "type": "Point", "coordinates": [ -122.26268, 37.80125 ] } },
{ "type": "Feature", "properties": { "Name": "Thrid Stop", "Short_Description": "Oakland Public Library, one of our bigger stops", "Description_1": "Some individuals exit the library to receive lunches, and the area appears to be a common place where people spend time.", "Description_2": "Tom shared that the library has expressed concerns about distributing food directly in front of the building, possibly due to issues like crumbs or waste. As a result, volunteers now stop across the street in front of the Alameda County Administration Building.", "X": -122.263633, "Y": 37.800381, "Category": "Main Stop", "Image_1": "https://raw.githubusercontent.com/emilyma214-alt/thecaremap/main/photos/locations/IMG_4408_2.jpg", "image_2": "https://raw.githubusercontent.com/emilyma214-alt/thecaremap/main/photos/locations/IMG_4295.jpeg", "Image_3": "" }, "geometry": { "type": "Point", "coordinates": [ -122.263633, 37.800381 ] } },
{ "type": "Feature", "properties": { "Name": "Small Stop - Garage", "Short_Description": "Under the garage", "Description_1": "This is a newer addition to the route. When I first joined the volunteer group, we did not stop here. It is generally a brief and quiet stop.", "Description_2": "", "X": -122.26463, "Y": 37.8019479, "Category": "Small Stop", "Image_1": "https://raw.githubusercontent.com/emilyma214-alt/thecaremap/main/photos/locations/IMG_4969.jpg", "image_2": "", "Image_3": "" }, "geometry": { "type": "Point", "coordinates": [ -122.26463, 37.8019479 ] } },
{ "type": "Feature", "properties": { "Name": "Small Stop - Hill Castle Apartments", "Short_Description": "sometimes there is a lady waiting for us here ", "Description_1": "According to Tom, this woman also cares for her husband at home.", "Description_2": "", "X": -122.265168, "Y": 37.8024868, "Category": "Small Stop", "Image_1": "https://raw.githubusercontent.com/emilyma214-alt/thecaremap/main/photos/locations/1431_Jackson_Street.jpg", "image_2": "", "Image_3": "" }, "geometry": { "type": "Point", "coordinates": [ -122.265168, 37.8024868 ] } },
{ "type": "Feature", "properties": { "Name": "Fourth Stop", "Short_Description": "Last stop, Lakehurst Residential Hotel", "Description_1": "Residents often come outside to receive lunches. Afterwards, remaining lunches (typically 6–7) are left at the hotel’s front desk.", "Description_2": "Upon doing a little bit research online, this place is a senior caring facility, though might not be a good one. One yelp review  from 2014 quote \" they get two meals a day and nothing on weekends\". Tom explained that earlier versions of the route focused only on Lake Merritt, but the previous organizer added this stop after learning that residents here sometimes have housing but still lack adequate living conditions.", "X": -122.2637754, "Y": 37.8042476, "Category": "Main Stop", "Image_1": "https://raw.githubusercontent.com/emilyma214-alt/thecaremap/main/photos/locations/IMG_4298.jpg", "image_2": "", "Image_3": "" }, "geometry": { "type": "Point", "coordinates": [ -122.2637754, 37.8042476 ] } }
]
}
