{
"type": "FeatureCollection",
"name": "The Care map - Sheet1 (4)",
"features": [
{ "type": "Feature", "properties": { "Name": " Lake Merritt United Methodist Church", "Short Description": "This is our Starting point and Ending point. \n", "Long Description": "This is also where I first meet Tom, the origanizer of the Lake Lunches. \nsome infor about the church and Tom and other stuff. ", "X": -122.258528, "Y": 37.7991741, "Category": "Start and End", "Image_1": "https://raw.githubusercontent.com/emilyma214-alt/thecaremap/main/photos/locations/IMG_4613.jpeg\n", "image_2": "", "Image_3": "", "Website Url": "", "Note": "" }, "geometry": { "type": "Point", "coordinates": [ -122.258528, 37.7991741 ] } },
{ "type": "Feature", "properties": { "Name": "First Stop ", "Short Description": "This is our first stop, which is an encampment under the bridge", "Long Description": "According to Tom, 5 months, this encampment is not more open. But just recently it become a lot more encapsulated. ", "X": -122.259415, "Y": 37.797982, "Category": "Main Stop", "Image_1": "", "image_2": "", "Image_3": "", "Website Url": "", "Note": "" }, "geometry": { "type": "Point", "coordinates": [ -122.259415, 37.797982 ] } },
{ "type": "Feature", "properties": { "Name": "Second Stop ", "Short Description": "This is Ambihtheater that can look out to the lake ", "Long Description": "Here we will typically meet a couple. ", "X": -122.260681, "Y": 37.799084, "Category": "Main Stop", "Image_1": "https://emilyma214-alt.github.io/thecaremap/photos/locations/IMG_4286.png ", "image_2": "", "Image_3": "", "Website Url": "", "Note": "" }, "geometry": { "type": "Point", "coordinates": [ -122.260681, 37.799084 ] } },
{
  "type": "Feature",
  "properties": {
    "Name": "",
    "Short Description": "Bathroom",
    "Long Description": "We will meet a couple of folks here.",
    "X": -122.26153,
    "Y": 37.799435,
    "Category": "Small Stop",
    "Image_1": "",
    "image_2": "",
    "Image_3": "",
    "Website Url": "",
    "Note": ""
  },
  "geometry": {
    "type": "Point",
    "coordinates": [-122.26153, 37.799435]
  }
}

{ "type": "Feature", "properties": { "Name": "", "Short Description": "The Benches", "Long Description": "Here is i am pretty sure it is a meet up point. A lot of folks will stay here and hang out. We will always often them lunch and they rarelytakes them", "X": -122.261732, "Y": 37.79984, "Category": "Small Stop", "Image_1": "", "image_2": "", "Image_3": "", "Website Url": "", "Note": "" }, "geometry": { "type": "Point", "coordinates": [ -122.261732, 37.79984 ] } },
{ "type": "Feature", "properties": { "Name": "", "Short Description": "The Grassland where We will meet the two dogs", "Long Description": "Here is also a stop that we always stop at. A couple folks with dogs stays here", "X": -122.261765, "Y": 37.800929, "Category": "Small Stop", "Image_1": "", "image_2": "", "Image_3": "", "Website Url": "", "Note": "" }, "geometry": { "type": "Point", "coordinates": [ -122.261765, 37.800929 ] } },
{ "type": "Feature", "properties": { "Name": "", "Short Description": "Ms Chen infront of the Stanford House", "Long Description": "Ms Chen will always be around this area. She takes care of her sick husband at home. She is always so appreiciative of us and always thanks us deeply", "X": -122.26268, "Y": 37.80125, "Category": "Small Stop", "Image_1": "", "image_2": "", "Image_3": "", "Website Url": "", "Note": "" }, "geometry": { "type": "Point", "coordinates": [ -122.26268, 37.80125 ] } },
{ "type": "Feature", "properties": { "Name": "Thrid Stop", "Short Description": "Library, one of our bigger stops", "Long Description": "But the library has veen complaining to us about this stopping infront, so we move out stop to the city hall across the street. we will stay here for a couple of minutes and wait for the some of folks to come out", "X": -122.263633, "Y": 37.800381, "Category": "Main Stop", "Image_1": "https://raw.githubusercontent.com/emilyma214-alt/thecaremap/main/photos/locations/IMG_4408_2.jpg\n", "image_2": "", "Image_3": "", "Website Url": "", "Note": "" }, "geometry": { "type": "Point", "coordinates": [ -122.263633, 37.800381 ] } },
{ "type": "Feature", "properties": { "Name": "", "Short Description": "Under the garage, might be more a new addition to the route", "Long Description": "it is just a quick stop. ", "X": -122.26463, "Y": 37.8019479, "Category": "", "Image_1": "", "image_2": "", "Image_3": "", "Website Url": "", "Note": "" }, "geometry": { "type": "Point", "coordinates": [ -122.26463, 37.8019479 ] } },
{ "type": "Feature", "properties": { "Name": "", "Short Description": "Hill Castale apartment", "Long Description": "sometimes there might be an old lady waiting for us here ", "X": -122.265168, "Y": 37.8024868, "Category": "", "Image_1": "", "image_2": "", "Image_3": "", "Website Url": "", "Note": "" }, "geometry": { "type": "Point", "coordinates": [ -122.265168, 37.8024868 ] } },
{ "type": "Feature", "properties": { "Name": "Fourth Stop", "Short Description": "Last stop, Here is where we will finish up our lunches", "Long Description": "Pretty sure it is a hotel but a lot of folks stays here. The amentity is pretty bad so a lot of people will come down and get the lunches. we will give the front desk the left overs,", "X": -122.2637754, "Y": 37.8042476, "Category": "Main Stop", "Image_1": "", "image_2": "", "Image_3": "", "Website Url": "", "Note": "" }, "geometry": { "type": "Point", "coordinates": [ -122.2637754, 37.8042476 ] } }
]
}
