{
"type": "FeatureCollection",
"name": "tracks",
"features": [
{ "type": "Feature", "properties": { "name": "New file 1" }, "geometry": { "type": "LineString", "coordinates": [ [ -122.258246, 37.799349 ], [ -122.258225, 37.799333 ], [ -122.258376, 37.799213 ], [ -122.258515, 37.79908 ], [ -122.258608, 37.798984 ], [ -122.258721, 37.798843 ], [ -122.258757, 37.798794 ], [ -122.258884, 37.798777 ], [ -122.258894, 37.798773 ], [ -122.258947, 37.798753 ], [ -122.259097, 37.798651 ], [ -122.259183, 37.798597 ], [ -122.259228, 37.79858 ], [ -122.259284, 37.79857 ], [ -122.259796, 37.798598 ], [ -122.259844, 37.798603 ], [ -122.259901, 37.798625 ], [ -122.259939, 37.798656 ], [ -122.259973, 37.798698 ], [ -122.260017, 37.798737 ], [ -122.260089, 37.798764 ], [ -122.260138, 37.798808 ], [ -122.260309, 37.798871 ], [ -122.261085, 37.799166 ], [ -122.26121, 37.79922 ], [ -122.261314, 37.799288 ], [ -122.261422, 37.79937 ], [ -122.261513, 37.799459 ], [ -122.261582, 37.799556 ], [ -122.261616, 37.799609 ], [ -122.261669, 37.799717 ], [ -122.261715, 37.799859 ], [ -122.261709, 37.800054 ], [ -122.261687, 37.800212 ], [ -122.261687, 37.800447 ], [ -122.261745, 37.800694 ], [ -122.261753, 37.800788 ], [ -122.261738, 37.80086 ], [ -122.261688, 37.800958 ], [ -122.261561, 37.801157 ], [ -122.261542, 37.801374 ], [ -122.261551, 37.801446 ], [ -122.261555, 37.801479 ], [ -122.26168, 37.801482 ], [ -122.262066, 37.801625 ], [ -122.26234, 37.801721 ], [ -122.262377, 37.801736 ], [ -122.262432, 37.801754 ], [ -122.262377, 37.801736 ], [ -122.26234, 37.801721 ], [ -122.262358, 37.801693 ], [ -122.262423, 37.801669 ], [ -122.262456, 37.801633 ], [ -122.262551, 37.801471 ], [ -122.262687, 37.801239 ], [ -122.262695, 37.801205 ], [ -122.262694, 37.801177 ], [ -122.262668, 37.801157 ], [ -122.262674, 37.801146 ], [ -122.262736, 37.801049 ], [ -122.262759, 37.801013 ], [ -122.262782, 37.800977 ], [ -122.262811, 37.80093 ], [ -122.262829, 37.800906 ], [ -122.262861, 37.800927 ], [ -122.262968, 37.800755 ], [ -122.263172, 37.800415 ], [ -122.263218, 37.80034 ], [ -122.263254, 37.800354 ], [ -122.263322, 37.800381 ], [ -122.263435, 37.800425 ], [ -122.263536, 37.800465 ], [ -122.263684, 37.800523 ], [ -122.264136, 37.8007 ], [ -122.264283, 37.800758 ], [ -122.264395, 37.800801 ], [ -122.264502, 37.800844 ], [ -122.264523, 37.800811 ], [ -122.264502, 37.800844 ], [ -122.26445, 37.800928 ], [ -122.264404, 37.801 ], [ -122.264325, 37.801127 ], [ -122.264282, 37.801196 ], [ -122.264158, 37.801395 ], [ -122.264122, 37.801454 ], [ -122.264072, 37.801532 ], [ -122.264047, 37.801572 ], [ -122.264072, 37.801532 ], [ -122.264168, 37.80157 ], [ -122.264709, 37.801781 ], [ -122.264748, 37.801796 ], [ -122.265163, 37.801963 ], [ -122.265226, 37.801987 ], [ -122.265256, 37.801999 ], [ -122.265213, 37.80208 ], [ -122.265178, 37.802137 ], [ -122.265034, 37.802346 ], [ -122.264993, 37.80241 ], [ -122.264759, 37.802781 ], [ -122.264694, 37.802883 ], [ -122.264661, 37.802937 ], [ -122.26395, 37.80408 ], [ -122.263768, 37.804373 ], [ -122.263628, 37.804599 ], [ -122.263648, 37.804606 ], [ -122.263628, 37.804599 ], [ -122.263581, 37.804674 ], [ -122.263488, 37.804637 ], [ -122.262849, 37.804382 ], [ -122.262507, 37.804245 ], [ -122.262405, 37.804205 ], [ -122.262311, 37.804168 ], [ -122.261349, 37.803798 ], [ -122.261322, 37.803787 ], [ -122.261217, 37.803737 ], [ -122.261274, 37.803694 ], [ -122.261217, 37.803737 ], [ -122.261094, 37.803693 ], [ -122.261067, 37.803662 ], [ -122.261045, 37.803636 ], [ -122.261059, 37.803565 ], [ -122.261098, 37.803502 ], [ -122.26113, 37.803451 ], [ -122.261474, 37.802908 ], [ -122.261484, 37.802882 ], [ -122.261512, 37.802808 ], [ -122.261543, 37.802753 ], [ -122.261571, 37.802744 ], [ -122.261543, 37.802753 ], [ -122.261528, 37.802727 ], [ -122.261545, 37.802642 ], [ -122.261565, 37.802529 ], [ -122.261571, 37.802384 ], [ -122.261571, 37.802379 ], [ -122.261706, 37.802408 ], [ -122.26176, 37.80228 ], [ -122.261792, 37.802144 ], [ -122.26175, 37.801931 ], [ -122.261693, 37.801825 ], [ -122.261594, 37.801684 ], [ -122.261588, 37.801676 ], [ -122.261555, 37.801479 ], [ -122.261542, 37.801374 ], [ -122.261561, 37.801157 ], [ -122.261688, 37.800958 ], [ -122.261738, 37.80086 ], [ -122.261753, 37.800788 ], [ -122.261745, 37.800694 ], [ -122.261687, 37.800447 ], [ -122.261687, 37.800212 ], [ -122.261709, 37.800054 ], [ -122.261715, 37.799859 ], [ -122.261669, 37.799717 ], [ -122.261616, 37.799609 ], [ -122.261582, 37.799556 ], [ -122.261513, 37.799459 ], [ -122.261422, 37.79937 ], [ -122.261314, 37.799288 ], [ -122.26121, 37.79922 ], [ -122.261085, 37.799166 ], [ -122.260309, 37.798871 ], [ -122.260138, 37.798808 ], [ -122.260089, 37.798764 ], [ -122.260017, 37.798737 ], [ -122.259973, 37.798698 ], [ -122.259939, 37.798656 ], [ -122.259901, 37.798625 ], [ -122.259844, 37.798603 ], [ -122.259796, 37.798598 ], [ -122.259284, 37.79857 ], [ -122.259228, 37.79858 ], [ -122.259183, 37.798597 ], [ -122.259097, 37.798651 ], [ -122.258947, 37.798753 ], [ -122.25885, 37.798897 ], [ -122.258733, 37.799045 ], [ -122.258639, 37.799145 ], [ -122.25852, 37.799257 ], [ -122.258409, 37.799338 ], [ -122.258324, 37.799414 ], [ -122.258295, 37.799389 ] ] } }
]
}
