{
"type": "FeatureCollection",
"name": "The Care map - Sheet2 (1)",
"features": [
{ "type": "Feature", "properties": { "Name": "The first crosswalk we walk through", "X": -122.258297, "Y": 37.799367, "Image_A": "https://raw.githubusercontent.com/emilyma214-alt/thecaremap/main/photos/viewpoints/IMG_4615.jpeg", "Image_B": "https://raw.githubusercontent.com/emilyma214-alt/thecaremap/main/photos/viewpoints/IMG_4284.jpg", "Image_C": "" }, "geometry": { "type": "Point", "coordinates": [ -122.258297, 37.799367 ] } },
{ "type": "Feature", "properties": { "Name": "View from Lake Merritt Amphitheater", "X": -122.260842, "Y": 37.798866, "Image_A": "https://raw.githubusercontent.com/emilyma214-alt/thecaremap/main/photos/viewpoints/IMG_4287.jpg", "Image_B": "https://raw.githubusercontent.com/emilyma214-alt/thecaremap/main/photos/viewpoints/IMG_4288.jpg", "Image_C": "https://raw.githubusercontent.com/emilyma214-alt/thecaremap/main/photos/viewpoints/IMG_4289.jpg" }, "geometry": { "type": "Point", "coordinates": [ -122.260842, 37.798866 ] } },
{ "type": "Feature", "properties": { "Name": "Someone's wedding/engagement photoshoot that we saw on our way", "X": -122.26117, "Y": 37.802822, "Image_A": "https://raw.githubusercontent.com/emilyma214-alt/thecaremap/main/photos/viewpoints/IMG_4621.jpeg", "Image_B": "", "Image_C": "" }, "geometry": { "type": "Point", "coordinates": [ -122.26117, 37.802822 ] } },
{ "type": "Feature", "properties": { "Name": "On our way back", "X": -122.261419, "Y": 37.8033, "Image_A": "https://raw.githubusercontent.com/emilyma214-alt/thecaremap/main/photos/viewpoints/IMG_4620.jpeg", "Image_B": "https://raw.githubusercontent.com/emilyma214-alt/thecaremap/main/photos/viewpoints/IMG_4619.jpeg", "Image_C": "" }, "geometry": { "type": "Point", "coordinates": [ -122.261419, 37.8033 ] } },
{ "type": "Feature", "properties": { "Name": "Raining day Volunteer, after the stop infront of the Alameda County Administration Building", "X": -122.264252, "Y": 37.800703, "Image_A": "https://raw.githubusercontent.com/emilyma214-alt/thecaremap/main/photos/viewpoints/IMG_2224.jpg", "Image_B": "", "Image_C": "" }, "geometry": { "type": "Point", "coordinates": [ -122.264252, 37.800703 ] } },
{ "type": "Feature", "properties": { "Name": "View of Lake Merttie infront of the Grassland", "X": -122.2625414, "Y": 37.8009474, "Image_A": "https://raw.githubusercontent.com/emilyma214-alt/thecaremap/main/photos/viewpoints/IMG_4293.jpg", "Image_B": "", "Image_C": "" }, "geometry": { "type": "Point", "coordinates": [ -122.2625414, 37.8009474 ] } },
{ "type": "Feature", "properties": { "Name": "Inside the Church. The Kitchen and the Lunches", "X": -122.257662, "Y": 37.79872, "Image_A": "https://raw.githubusercontent.com/emilyma214-alt/thecaremap/main/photos/viewpoints/IMG_4957.jpg", "Image_B": "https://raw.githubusercontent.com/emilyma214-alt/thecaremap/main/photos/viewpoints/IMG_4958.jpg", "Image_C": "" }, "geometry": { "type": "Point", "coordinates": [ -122.257662, 37.79872 ] } },
{ "type": "Feature", "properties": { "Name": "The view of the Lake from outside of the Church", "X": -122.258853, "Y": 37.798934, "Image_A": "https://raw.githubusercontent.com/emilyma214-alt/thecaremap/main/photos/viewpoints/IMG_4959.jpg", "Image_B": "", "Image_C": "" }, "geometry": { "type": "Point", "coordinates": [ -122.258853, 37.798934 ] } },
{ "type": "Feature", "properties": { "Name": "On the Slope where we go out the neighborhood from the Lake", "X": -122.261637, "Y": 37.801476, "Image_A": "https://raw.githubusercontent.com/emilyma214-alt/thecaremap/main/photos/viewpoints/IMG_4965.jpg", "Image_B": "", "Image_C": "" }, "geometry": { "type": "Point", "coordinates": [ -122.261637, 37.801476 ] } },
{ "type": "Feature", "properties": { "Name": "Infront of Camron-Stanford House", "X": -122.262514, "Y": 37.801565, "Image_A": "https://raw.githubusercontent.com/emilyma214-alt/thecaremap/main/photos/viewpoints/IMG_4967.jpg", "Image_B": "", "Image_C": "" }, "geometry": { "type": "Point", "coordinates": [ -122.262514, 37.801565 ] } },
{ "type": "Feature", "properties": { "Name": "Corner of the Library", "X": -122.264368, "Y": 37.800893, "Image_A": "https://raw.githubusercontent.com/emilyma214-alt/thecaremap/main/photos/viewpoints/IMG_4968.jpg", "Image_B": "", "Image_C": "" }, "geometry": { "type": "Point", "coordinates": [ -122.264368, 37.800893 ] } },
{ "type": "Feature", "properties": { "Name": "On the way to Hill Castle Apartments", "X": -122.265287, "Y": 37.802138, "Image_A": "https://raw.githubusercontent.com/emilyma214-alt/thecaremap/main/photos/viewpoints/IMG_4970.jpg", "Image_B": "", "Image_C": "" }, "geometry": { "type": "Point", "coordinates": [ -122.265287, 37.802138 ] } },
{ "type": "Feature", "properties": { "Name": "On the Way to Lakehurst Hotel", "X": -122.264778, "Y": 37.802973, "Image_A": "https://raw.githubusercontent.com/emilyma214-alt/thecaremap/main/photos/viewpoints/IMG_4971.jpg", "Image_B": "", "Image_C": "" }, "geometry": { "type": "Point", "coordinates": [ -122.264778, 37.802973 ] } }
]
}
